CCSDS_OMM_VERS = 2.0
CREATION_DATE  = 
ORIGINATOR     = 

OBJECT_NAME    = LEO 3
OBJECT_ID      = 2023-100G
CENTER_NAME    = EARTH
REF_FRAME      = TEME
TIME_SYSTEM    = UTC
MEAN_ELEMENT_THEORY = SGP/SGP4

EPOCH          = 2026-06-01T07:42:20.082528
MEAN_MOTION    = 13.68420246
ECCENTRICITY   = .0018935
INCLINATION    = 99.5618
RA_OF_ASC_NODE = 276.7913
ARG_OF_PERICENTER = 58.5750
MEAN_ANOMALY   = 301.7244

EPHEMERIS_TYPE = 0
CLASSIFICATION_TYPE = U
NORAD_CAT_ID   = 57392
ELEMENT_SET_NO = 999
REV_AT_EPOCH   = 14347
BSTAR          = .23089676E-4
MEAN_MOTION_DOT = -.25E-6
MEAN_MOTION_DDOT = 0

