1 57392U 23100G   26152.32106577 -.00000025  00000+0  23090-4 0  9994
2 57392  99.5618 276.7913 0018935  58.5750 301.7244 13.68420246143473
